FLOCK 2K-07             
1 42862U 17042AP  17345.79996745  .00007152  00000-0  21249-3 0  9998
2 42862  96.9945 246.8694 0013051  72.4289 287.8380 15.34969238 22883
